STARLINK-31296          
1 58879U 24020D   26068.88423204  .00036654  00000+0  12469-2 0  9995
2 58879  53.1600 295.7482 0001374  95.0661 265.0496 15.30115201118464
NUSAT-50 (NANCY ROMAN)  
1 60493U 24149AB  26068.80227738  .00012094  00000+0  42252-3 0  9994
2 60493  97.3817 150.7693 0002523 238.0469 122.0527 15.29713355 86930
